ORBCOMM FM06            
1 25118U 97084G   26189.39475907  .00000885  00000+0  27712-3 0  9997
2 25118  45.0147 310.6151 0000986 210.1516 192.1856 14.47616773497464
ORBCOMM FM04            
1 25159U 98007C   26189.29638590  .00000514  00000+0  22153-3 0  9999
2 25159 107.9632 212.8664 0041849 288.6186  71.0413 14.35776802479623
ORBCOMM FM19            
1 25415U 98046C   26189.26734884  .00000723  00000+0  27483-3 0  9990
2 25415  44.9924 143.3552 0003588  19.5437 138.3234 14.39532250459812
ORBCOMM FM20            
1 25416U 98046D   26189.27071158  .00000460  00000+0  19692-3 0  9991
2 25416  44.9925 151.4951 0001996 324.4622  35.6092 14.38092561459829
ORBCOMM FM27            
1 25481U 98053G   26189.42929422  .00000467  00000+0  19507-3 0  9996
2 25481  45.0038 234.4585 0002401 267.7032  92.3542 14.39177779453290
ORBCOMM FM32            
1 25982U 99065C   26189.35349282  .00000489  00000+0  21018-3 0  9992
2 25982  45.0155  73.0491 0005034 157.9812 202.1253 14.37161684390139
ORBCOMM FM109           
1 40086U 14040A   26188.43895652  .00000319  00000+0  10364-3 0  9993
2 40086  47.0043 355.7372 0001770 299.6158  60.4551 14.58867123637300
ORBCOMM FM110           
1 41182U 15081D   26188.44400825  .00000460  00000+0  13341-3 0  9997
2 41182  47.0017 265.6622 0003199 188.6798 171.4033 14.58911772560583
ORBCOMM FM118           
1 41183U 15081E   26189.50563809  .00000211  00000+0  80900-4 0  9998
2 41183  47.0033 260.9782 0002551 153.0735 207.0284 14.58900482560844
ORBCOMM FM112           
1 41184U 15081F   26189.30433835  .00000487  00000+0  13915-3 0  9998
2 41184  46.9971 170.3866 0004024 300.2170  59.8317 14.58930797562032
ORBCOMM FM113           
1 41185U 15081G   26189.00773132  .00000230  00000+0  84853-4 0  9999
2 41185  46.9991 172.1761 0002536 295.4275  64.6348 14.58876786561973
ORBCOMM FM108           
1 41187U 15081J   26189.38076986  .00000455  00000+0  13232-3 0  9996
2 41187  47.0052  81.9922 0002956 297.6319  62.4266 14.58903233563177
ORBCOMM FM117           
1 41188U 15081K   26189.07250359  .00000414  00000+0  12376-3 0  9994
2 41188  47.0014  82.0783 0003434 302.2374  57.8178 14.58889920563175
ORBCOMM FM116           
1 41189U 15081L   26189.32663166  .00000127  00000+0  62928-4 0  9997
2 41189  47.0008 170.6656 0001299 210.6878 149.3932 14.58901357562027
